{
  "norad_id": 65603,
  "name": "STARLINK-35250",
  "history": [
    {
      "epoch": "2026-03-28T18:14:45.015936",
      "apogee_km": 549.8656598476,
      "perigee_km": 549.1303606676101,
      "latitude_deg": -55.609039487975615,
      "longitude_deg": 93.2833510399796,
      "semi_major_axis_km": 6927.635010257604,
      "eccentricity": 5.307e-05,
      "inclination_deg": 97.6021,
      "raan_deg": 157.5052,
      "arg_perigee_deg": 142.3689,
      "mean_anomaly_deg": 217.7575,
      "mean_motion_rev_day": 15.05654285
    },
    {
      "epoch": "2026-03-29T03:48:56.780928",
      "apogee_km": 549.846517713826,
      "perigee_km": 549.1024922381912,
      "latitude_deg": -49.13757761443502,
      "longitude_deg": 131.56308991997503,
      "semi_major_axis_km": 6927.611504976008,
      "eccentricity": 5.37e-05,
      "inclination_deg": 97.602,
      "raan_deg": 157.8981,
      "arg_perigee_deg": 148.916,
      "mean_anomaly_deg": 211.2099,
      "mean_motion_rev_day": 15.05661948
    }
  ]
}